[
  {
    "Zip": 44017,
    "businesses": "",
    "total sales": "$3,761,756.00",
    "average sales": "$179,131.24",
    "total cashed": "$1,926,332.50",
    "average cash": "$91,730.12",
    "cashed rate": "51.20%",
    "lat": 41.36706,
    "lon": -81.86707
  },
  {
    "Zip": 44022,
    "businesses": "",
    "total sales": "$274,498.00",
    "average sales": "$91,499.33",
    "total cashed": "$113,025.50",
    "average cash": "$37,675.17",
    "cashed rate": "41.20%",
    "lat": 41.45133,
    "lon": -81.3933
  },
  {
    "Zip": 44040,
    "businesses": "",
    "total sales": "$165,038.00",
    "average sales": "$165,038.00",
    "total cashed": "$54,331.50",
    "average cash": "$54,331.50",
    "cashed rate": "32.90%",
    "lat": 41.53421,
    "lon": -81.4155
  },
  {
    "Zip": 44070,
    "businesses": "",
    "total sales": "$6,192,729.00",
    "average sales": "$199,765.45",
    "total cashed": "$3,180,700.00",
    "average cash": "$102,603.23",
    "cashed rate": "51.40%",
    "lat": 41.41615,
    "lon": -81.92202
  },
  {
    "Zip": 44102,
    "businesses": "",
    "total sales": "$6,140,577.50",
    "average sales": "$97,469.48",
    "total cashed": "$3,029,207.00",
    "average cash": "$48,082.65",
    "cashed rate": "49.30%",
    "lat": 41.47601,
    "lon": -81.7388
  },
  {
    "Zip": 44103,
    "businesses": 34,
    "total sales": "$7,690,160.00",
    "average sales": "$226,181.18",
    "total cashed": "$3,351,225.00",
    "average cash": "$98,565.44",
    "cashed rate": "43.60%",
    "lat": 41.52212,
    "lon": -81.64442
  },
  {
    "Zip": 44104,
    "businesses": 24,
    "total sales": "$3,991,963.00",
    "average sales": "$166,331.79",
    "total cashed": "$1,685,649.50",
    "average cash": "$70,235.40",
    "cashed rate": "42.20%",
    "lat": 41.48047,
    "lon": -81.63099
  },
  {
    "Zip": 44105,
    "businesses": 46,
    "total sales": "$8,759,653.00",
    "average sales": "$190,427.24",
    "total cashed": "$4,007,239.00",
    "average cash": "$87,113.89",
    "cashed rate": "45.70%",
    "lat": 41.44953,
    "lon": -81.63338
  },
  {
    "Zip": 44106,
    "businesses": 22,
    "total sales": "$4,162,664.00",
    "average sales": "$189,212.00",
    "total cashed": "$1,495,756.50",
    "average cash": "$67,988.93",
    "cashed rate": "35.90%",
    "lat": 41.5067,
    "lon": -81.60535
  },
  {
    "Zip": 44107,
    "businesses": 51,
    "total sales": "$6,719,000.50",
    "average sales": "$131,745.11",
    "total cashed": "$3,590,139.00",
    "average cash": "$70,394.88",
    "cashed rate": "53.40%",
    "lat": 41.48254,
    "lon": -81.80352
  },
  {
    "Zip": 44108,
    "businesses": 27,
    "total sales": "$4,980,246.50",
    "average sales": "$184,453.57",
    "total cashed": "$2,015,054.50",
    "average cash": "$74,631.65",
    "cashed rate": "40.50%",
    "lat": 41.54536,
    "lon": -81.60805
  },
  {
    "Zip": 44109,
    "businesses": 60,
    "total sales": "$7,668,407.50",
    "average sales": "$127,806.79",
    "total cashed": "$3,755,449.50",
    "average cash": "$62,590.83",
    "cashed rate": "49.00%",
    "lat": 41.44465,
    "lon": -81.69578
  },
  {
    "Zip": 44110,
    "businesses": 21,
    "total sales": "$4,900,099.50",
    "average sales": "$233,338.07",
    "total cashed": "$2,170,159.00",
    "average cash": "$103,340.90",
    "cashed rate": "44.30%",
    "lat": 41.56515,
    "lon": -81.56503
  },
  {
    "Zip": 44111,
    "businesses": 63,
    "total sales": "$9,634,417.00",
    "average sales": "$152,927.25",
    "total cashed": "$5,136,993.50",
    "average cash": "$81,539.58",
    "cashed rate": "53.30%",
    "lat": 41.45985,
    "lon": -81.79478
  },
  {
    "Zip": 44112,
    "businesses": 29,
    "total sales": "$6,242,918.50",
    "average sales": "$215,273.05",
    "total cashed": "$2,637,972.00",
    "average cash": "$90,964.55",
    "cashed rate": "42.30%",
    "lat": 41.53825,
    "lon": -81.5731
  },
  {
    "Zip": 44113,
    "businesses": 25,
    "total sales": "$4,887,450.00",
    "average sales": "$195,498.00",
    "total cashed": "$2,348,168.50",
    "average cash": "$93,926.74",
    "cashed rate": "48.00%",
    "lat": 41.4858,
    "lon": -81.69441
  },
  {
    "Zip": 44114,
    "businesses": 27,
    "total sales": "$3,538,252.50",
    "average sales": "$131,046.39",
    "total cashed": "$1,698,118.00",
    "average cash": "$62,893.26",
    "cashed rate": "48.00%",
    "lat": 41.51766,
    "lon": -81.67519
  },
  {
    "Zip": 44115,
    "businesses": 20,
    "total sales": "$1,883,383.50",
    "average sales": "$94,169.18",
    "total cashed": "$764,867.00",
    "average cash": "$38,243.35",
    "cashed rate": "40.60%",
    "lat": 41.48759,
    "lon": -81.67769
  },
  {
    "Zip": 44116,
    "businesses": 16,
    "total sales": "$2,265,245.50",
    "average sales": "$141,577.84",
    "total cashed": "$1,197,242.50",
    "average cash": "$74,827.66",
    "cashed rate": "52.90%",
    "lat": 41.46999,
    "lon": -81.84886
  },
  {
    "Zip": 44117,
    "businesses": 8,
    "total sales": "$1,877,329.00",
    "average sales": "$234,666.13",
    "total cashed": "$948,691.50",
    "average cash": "$118,586.44",
    "cashed rate": "50.50%",
    "lat": 41.56996,
    "lon": -81.5265
  },
  {
    "Zip": 44118,
    "businesses": 16,
    "total sales": "$3,601,976.00",
    "average sales": "$225,123.50",
    "total cashed": "$1,480,683.50",
    "average cash": "$92,542.72",
    "cashed rate": "41.10%",
    "lat": 41.50439,
    "lon": -81.55413
  },
  {
    "Zip": 44119,
    "businesses": 21,
    "total sales": "$4,254,538.50",
    "average sales": "$202,597.07",
    "total cashed": "$1,896,718.00",
    "average cash": "$90,319.90",
    "cashed rate": "44.60%",
    "lat": 41.58652,
    "lon": -81.54587
  },
  {
    "Zip": 44120,
    "businesses": 30,
    "total sales": "$8,554,981.00",
    "average sales": "$285,166.03",
    "total cashed": "$3,498,321.50",
    "average cash": "$116,610.72",
    "cashed rate": "40.90%",
    "lat": 41.47368,
    "lon": -81.5765
  },
  {
    "Zip": 44121,
    "businesses": 21,
    "total sales": "$5,930,731.50",
    "average sales": "$282,415.79",
    "total cashed": "$2,752,144.50",
    "average cash": "$131,054.50",
    "cashed rate": "46.40%",
    "lat": 41.52754,
    "lon": -81.53241
  },
  {
    "Zip": 44122,
    "businesses": 13,
    "total sales": "$2,969,198.00",
    "average sales": "$228,399.85",
    "total cashed": "$1,134,695.50",
    "average cash": "$87,284.27",
    "cashed rate": "38.20%",
    "lat": 41.47952,
    "lon": -81.5119
  },
  {
    "Zip": 44123,
    "businesses": 16,
    "total sales": "$2,848,552.00",
    "average sales": "$178,034.50",
    "total cashed": "$1,345,287.00",
    "average cash": "$84,080.44",
    "cashed rate": "47.20%",
    "lat": 41.60364,
    "lon": -81.52611
  },
  {
    "Zip": 44124,
    "businesses": 23,
    "total sales": "$4,436,781.50",
    "average sales": "$192,903.54",
    "total cashed": "$2,180,128.50",
    "average cash": "$94,788.20",
    "cashed rate": "49.10%",
    "lat": 41.49679,
    "lon": -81.47174
  },
  {
    "Zip": 44125,
    "businesses": 28,
    "total sales": "$6,154,178.00",
    "average sales": "$219,792.07",
    "total cashed": "$3,159,770.00",
    "average cash": "$112,848.93",
    "cashed rate": "51.30%",
    "lat": 41.39941,
    "lon": -81.633
  },
  {
    "Zip": 44126,
    "businesses": 15,
    "total sales": "$2,478,103.00",
    "average sales": "$165,206.87",
    "total cashed": "$1,301,369.00",
    "average cash": "$86,757.93",
    "cashed rate": "52.50%",
    "lat": 41.44105,
    "lon": -81.8483
  },
  {
    "Zip": 44127,
    "businesses": 12,
    "total sales": "$1,158,761.00",
    "average sales": "$96,563.42",
    "total cashed": "$514,781.00",
    "average cash": "$42,898.42",
    "cashed rate": "44.40%",
    "lat": 41.47386,
    "lon": -81.64734
  },
  {
    "Zip": 44128,
    "businesses": 35,
    "total sales": "$10,529,904.00",
    "average sales": "$300,854.40",
    "total cashed": "$4,755,340.50",
    "average cash": "$135,866.87",
    "cashed rate": "45.20%",
    "lat": 41.43773,
    "lon": -81.53575
  },
  {
    "Zip": 44129,
    "businesses": 30,
    "total sales": "$5,755,941.50",
    "average sales": "$191,864.72",
    "total cashed": "$2,968,154.00",
    "average cash": "$98,938.47",
    "cashed rate": "51.60%",
    "lat": 41.38689,
    "lon": -81.7352
  },
  {
    "Zip": 44130,
    "businesses": 64,
    "total sales": "$13,668,184.00",
    "average sales": "$213,565.38",
    "total cashed": "$7,075,145.50",
    "average cash": "$110,549.15",
    "cashed rate": "51.80%",
    "lat": 41.38453,
    "lon": -81.79471
  },
  {
    "Zip": 44131,
    "businesses": 16,
    "total sales": "$3,768,093.50",
    "average sales": "$235,505.84",
    "total cashed": "$1,836,804.50",
    "average cash": "$114,800.28",
    "cashed rate": "48.70%",
    "lat": 41.39167,
    "lon": -81.64142
  },
  {
    "Zip": 44132,
    "businesses": 10,
    "total sales": "$2,517,001.50",
    "average sales": "$251,700.15",
    "total cashed": "$1,113,647.50",
    "average cash": "$111,364.75",
    "cashed rate": "44.20%",
    "lat": 41.60823,
    "lon": -81.50097
  },
  {
    "Zip": 44133,
    "businesses": 26,
    "total sales": "$4,172,462.00",
    "average sales": "$160,479.31",
    "total cashed": "$2,227,358.50",
    "average cash": "$85,667.63",
    "cashed rate": "53.40%",
    "lat": 41.31463,
    "lon": -81.7435
  },
  {
    "Zip": 44134,
    "businesses": 56,
    "total sales": "$10,609,156.50",
    "average sales": "$189,449.22",
    "total cashed": "$5,813,117.50",
    "average cash": "$103,805.67",
    "cashed rate": "54.80%",
    "lat": 41.38583,
    "lon": -81.7099
  },
  {
    "Zip": 44135,
    "businesses": 34,
    "total sales": "$5,604,754.00",
    "average sales": "$164,845.71",
    "total cashed": "$2,782,156.00",
    "average cash": "$81,828.12",
    "cashed rate": "49.60%",
    "lat": 41.42386,
    "lon": -81.8168
  },
  {
    "Zip": 44136,
    "businesses": 22,
    "total sales": "$3,437,865.50",
    "average sales": "$156,266.61",
    "total cashed": "$1,679,833.50",
    "average cash": "$76,356.07",
    "cashed rate": "48.90%",
    "lat": 41.31316,
    "lon": -81.81109
  },
  {
    "Zip": 44137,
    "businesses": 34,
    "total sales": "$8,071,789.50",
    "average sales": "$237,405.57",
    "total cashed": "$3,811,994.50",
    "average cash": "$112,117.49",
    "cashed rate": "47.20%",
    "lat": 41.40479,
    "lon": -81.55666
  },
  {
    "Zip": 44138,
    "businesses": 14,
    "total sales": "$1,915,661.00",
    "average sales": "$136,832.93",
    "total cashed": "$1,022,122.00",
    "average cash": "$73,008.71",
    "cashed rate": "53.40%",
    "lat": 41.37885,
    "lon": -81.93068
  },
  {
    "Zip": 44139,
    "businesses": 14,
    "total sales": "$3,101,385.00",
    "average sales": "$221,527.50",
    "total cashed": "$1,477,748.00",
    "average cash": "$105,553.43",
    "cashed rate": "47.60%",
    "lat": 41.38648,
    "lon": -81.44025
  },
  {
    "Zip": 44140,
    "businesses": 5,
    "total sales": "$419,399.00",
    "average sales": "$83,879.80",
    "total cashed": "$158,616.00",
    "average cash": "$31,723.20",
    "cashed rate": "37.80%",
    "lat": 41.49097,
    "lon": -81.92146
  },
  {
    "Zip": 44141,
    "businesses": 5,
    "total sales": "$804,167.50",
    "average sales": "$160,833.50",
    "total cashed": "$347,398.00",
    "average cash": "$69,479.60",
    "cashed rate": "43.20%",
    "lat": 41.30627,
    "lon": -81.61507
  },
  {
    "Zip": 44142,
    "businesses": 23,
    "total sales": "$6,144,061.00",
    "average sales": "$267,133.09",
    "total cashed": "$2,959,303.00",
    "average cash": "$128,665.35",
    "cashed rate": "48.20%",
    "lat": 41.40252,
    "lon": -81.83385
  },
  {
    "Zip": 44143,
    "businesses": 15,
    "total sales": "$4,897,620.00",
    "average sales": "$326,508.00",
    "total cashed": "$2,219,177.50",
    "average cash": "$147,945.17",
    "cashed rate": "45.30%",
    "lat": 41.55886,
    "lon": -81.47741
  },
  {
    "Zip": 44144,
    "businesses": 24,
    "total sales": "$5,853,976.50",
    "average sales": "$243,915.69",
    "total cashed": "$3,135,360.50",
    "average cash": "$130,640.02",
    "cashed rate": "53.60%",
    "lat": 41.4386,
    "lon": -81.74119
  },
  {
    "Zip": 44145,
    "businesses": 32,
    "total sales": "$4,250,697.50",
    "average sales": "$132,834.30",
    "total cashed": "$2,044,307.00",
    "average cash": "$63,884.59",
    "cashed rate": "48.10%",
    "lat": 41.44458,
    "lon": -81.93125
  },
  {
    "Zip": 44146,
    "businesses": 36,
    "total sales": "$6,937,810.00",
    "average sales": "$192,716.94",
    "total cashed": "$2,833,348.00",
    "average cash": "$78,704.11",
    "cashed rate": "40.80%",
    "lat": 41.38921,
    "lon": -81.53654
  },
  {
    "Zip": 44147,
    "businesses": 20,
    "total sales": "$1,993,002.50",
    "average sales": "$99,650.13",
    "total cashed": "$905,894.50",
    "average cash": "$45,294.73",
    "cashed rate": "45.50%",
    "lat": 41.31409,
    "lon": -81.67343
  },
  {
    "Zip": 44149,
    "businesses": 12,
    "total sales": "$2,092,054.00",
    "average sales": "$174,337.83",
    "total cashed": "$1,057,605.00",
    "average cash": "$88,133.75",
    "cashed rate": "50.60%",
    "lat": 41.3129,
    "lon": -81.84944
  },
  {
    "Zip": 44199,
    "businesses": 1,
    "total sales": "$748,573.50",
    "average sales": "$748,573.50",
    "total cashed": "$363,650.00",
    "average cash": "$363,650.00",
    "cashed rate": "48.60%",
    "lat": 41.4997,
    "lon": -81.6956
  }
]