{
   "type": "FeatureCollection",
   "features": [
  {
    "type": "Feature",
    "geometry": {
       "type": "Polygon",
       "coordinates":  [-81.86707,41.36706]


    },
    "properties": {
    "Zip":44017,
    "businesses":null,
    "total_sales":3761756,
    "average_sales":179131.24,
    "total_cashed":1926332.5,
    "average_cash":91730.12,
    "cashed_rate":0.51
    }
  },
  {
    "type": "Feature",
    "geometry": {
       "type": "Point",
       "coordinates":  [ -81.39,41.45 ]
    },
    "properties": {
    "Zip":44022,
    "businesses":null,
    "total_sales":274498,
    "average_sales":91499.33,
    "total_cashed":113025.5,
    "average_cash":37675.17,
    "cashed_rate":0.41
    }
  },
  {
    "type": "Feature",
    "geometry": {
       "type": "Point",
       "coordinates":  [ -81.42,41.53 ]
    },
    "properties": {
    "Zip":44040,
    "businesses":null,
    "total_sales":165038,
    "average_sales":165038,
    "total_cashed":54331.5,
    "average_cash":54331.5,
    "cashed_rate":0.33
    }
  },
  {
    "type": "Feature",
    "geometry": {
       "type": "Point",
       "coordinates":  [ -81.92,41.42 ]
    },
    "properties": {
    "Zip":44070,
    "businesses":null,
    "total_sales":6192729,
    "average_sales":199765.45,
    "total_cashed":3180700,
    "average_cash":102603.23,
    "cashed_rate":0.51
    }
  },
  {
    "type": "Feature",
    "geometry": {
       "type": "Point",
       "coordinates":  [ -81.74,41.48 ]
    },
    "properties": {
    "Zip":44102,
    "businesses":null,
    "total_sales":6140577.5,
    "average_sales":97469.48,
    "total_cashed":3029207,
    "average_cash":48082.65,
    "cashed_rate":0.49
    }
  },
  {
    "type": "Feature",
    "geometry": {
       "type": "Point",
       "coordinates":  [ -81.64,41.52 ]
    },
    "properties": {
    "Zip":44103,
    "businesses":34,
    "total_sales":7690160,
    "average_sales":226181.18,
    "total_cashed":3351225,
    "average_cash":98565.44,
    "cashed_rate":0.44
    }
  },
  {
    "type": "Feature",
    "geometry": {
       "type": "Point",
       "coordinates":  [ -81.63,41.48 ]
    },
    "properties": {
    "Zip":44104,
    "businesses":24,
    "total_sales":3991963,
    "average_sales":166331.79,
    "total_cashed":1685649.5,
    "average_cash":70235.4,
    "cashed_rate":0.42
    }
  },
  {
    "type": "Feature",
    "geometry": {
       "type": "Point",
       "coordinates":  [ -81.63,41.45 ]
    },
    "properties": {
    "Zip":44105,
    "businesses":46,
    "total_sales":8759653,
    "average_sales":190427.24,
    "total_cashed":4007239,
    "average_cash":87113.89,
    "cashed_rate":0.46
    }
  },
  {
    "type": "Feature",
    "geometry": {
       "type": "Point",
       "coordinates":  [ -81.61,41.51 ]
    },
    "properties": {
    "Zip":44106,
    "businesses":22,
    "total_sales":4162664,
    "average_sales":189212,
    "total_cashed":1495756.5,
    "average_cash":67988.93,
    "cashed_rate":0.36
    }
  },
  {
    "type": "Feature",
    "geometry": {
       "type": "Point",
       "coordinates":  [ -81.80,41.48 ]
    },
    "properties": {
    "Zip":44107,
    "businesses":51,
    "total_sales":6719000.5,
    "average_sales":131745.11,
    "total_cashed":3590139,
    "average_cash":70394.88,
    "cashed_rate":0.53
    }
  },
  {
    "type": "Feature",
    "geometry": {
       "type": "Point",
       "coordinates":  [ -81.61,41.55 ]
    },
    "properties": {
    "Zip":44108,
    "businesses":27,
    "total_sales":4980246.5,
    "average_sales":184453.57,
    "total_cashed":2015054.5,
    "average_cash":74631.65,
    "cashed_rate":0.41
    }
  },
  {
    "type": "Feature",
    "geometry": {
       "type": "Point",
       "coordinates":  [ -81.70,41.44 ]
    },
    "properties": {
    "Zip":44109,
    "businesses":60,
    "total_sales":7668407.5,
    "average_sales":127806.79,
    "total_cashed":3755449.5,
    "average_cash":62590.83,
    "cashed_rate":0.49
    }
  },
  {
    "type": "Feature",
    "geometry": {
       "type": "Point",
       "coordinates":  [ -81.57,41.57 ]
    },
    "properties": {
    "Zip":44110,
    "businesses":21,
    "total_sales":4900099.5,
    "average_sales":233338.07,
    "total_cashed":2170159,
    "average_cash":103340.9,
    "cashed_rate":0.44
    }
  },
  {
    "type": "Feature",
    "geometry": {
       "type": "Point",
       "coordinates":  [ -81.79,41.46 ]
    },
    "properties": {
    "Zip":44111,
    "businesses":63,
    "total_sales":9634417,
    "average_sales":152927.25,
    "total_cashed":5136993.5,
    "average_cash":81539.58,
    "cashed_rate":0.53
    }
  },
  {
    "type": "Feature",
    "geometry": {
       "type": "Point",
       "coordinates":  [ -81.57,41.54 ]
    },
    "properties": {
    "Zip":44112,
    "businesses":29,
    "total_sales":6242918.5,
    "average_sales":215273.05,
    "total_cashed":2637972,
    "average_cash":90964.55,
    "cashed_rate":0.42
    }
  },
  {
    "type": "Feature",
    "geometry": {
       "type": "Point",
       "coordinates":  [ -81.69,41.49 ]
    },
    "properties": {
    "Zip":44113,
    "businesses":25,
    "total_sales":4887450,
    "average_sales":195498,
    "total_cashed":2348168.5,
    "average_cash":93926.74,
    "cashed_rate":0.48
    }
  },
  {
    "type": "Feature",
    "geometry": {
       "type": "Point",
       "coordinates":  [ -81.68,41.52 ]
    },
    "properties": {
    "Zip":44114,
    "businesses":27,
    "total_sales":3538252.5,
    "average_sales":131046.39,
    "total_cashed":1698118,
    "average_cash":62893.26,
    "cashed_rate":0.48
    }
  },
  {
    "type": "Feature",
    "geometry": {
       "type": "Point",
       "coordinates":  [ -81.68,41.49 ]
    },
    "properties": {
    "Zip":44115,
    "businesses":20,
    "total_sales":1883383.5,
    "average_sales":94169.18,
    "total_cashed":764867,
    "average_cash":38243.35,
    "cashed_rate":0.41
    }
  },
  {
    "type": "Feature",
    "geometry": {
       "type": "Point",
       "coordinates":  [ -81.85,41.47 ]
    },
    "properties": {
    "Zip":44116,
    "businesses":16,
    "total_sales":2265245.5,
    "average_sales":141577.84,
    "total_cashed":1197242.5,
    "average_cash":74827.66,
    "cashed_rate":0.53
    }
  },
  {
    "type": "Feature",
    "geometry": {
       "type": "Point",
       "coordinates":  [ -81.53,41.57 ]
    },
    "properties": {
    "Zip":44117,
    "businesses":8,
    "total_sales":1877329,
    "average_sales":234666.13,
    "total_cashed":948691.5,
    "average_cash":118586.44,
    "cashed_rate":0.51
    }
  },
  {
    "type": "Feature",
    "geometry": {
       "type": "Point",
       "coordinates":  [ -81.55,41.50 ]
    },
    "properties": {
    "Zip":44118,
    "businesses":16,
    "total_sales":3601976,
    "average_sales":225123.5,
    "total_cashed":1480683.5,
    "average_cash":92542.72,
    "cashed_rate":0.41
    }
  },
  {
    "type": "Feature",
    "geometry": {
       "type": "Point",
       "coordinates":  [ -81.55,41.59 ]
    },
    "properties": {
    "Zip":44119,
    "businesses":21,
    "total_sales":4254538.5,
    "average_sales":202597.07,
    "total_cashed":1896718,
    "average_cash":90319.9,
    "cashed_rate":0.45
    }
  },
  {
    "type": "Feature",
    "geometry": {
       "type": "Point",
       "coordinates":  [ -81.58,41.47 ]
    },
    "properties": {
    "Zip":44120,
    "businesses":30,
    "total_sales":8554981,
    "average_sales":285166.03,
    "total_cashed":3498321.5,
    "average_cash":116610.72,
    "cashed_rate":0.41
    }
  },
  {
    "type": "Feature",
    "geometry": {
       "type": "Point",
       "coordinates":  [ -81.53,41.53 ]
    },
    "properties": {
    "Zip":44121,
    "businesses":21,
    "total_sales":5930731.5,
    "average_sales":282415.79,
    "total_cashed":2752144.5,
    "average_cash":131054.5,
    "cashed_rate":0.46
    }
  },
  {
    "type": "Feature",
    "geometry": {
       "type": "Point",
       "coordinates":  [ -81.51,41.48 ]
    },
    "properties": {
    "Zip":44122,
    "businesses":13,
    "total_sales":2969198,
    "average_sales":228399.85,
    "total_cashed":1134695.5,
    "average_cash":87284.27,
    "cashed_rate":0.38
    }
  },
  {
    "type": "Feature",
    "geometry": {
       "type": "Point",
       "coordinates":  [ -81.53,41.60 ]
    },
    "properties": {
    "Zip":44123,
    "businesses":16,
    "total_sales":2848552,
    "average_sales":178034.5,
    "total_cashed":1345287,
    "average_cash":84080.44,
    "cashed_rate":0.47
    }
  },
  {
    "type": "Feature",
    "geometry": {
       "type": "Point",
       "coordinates":  [ -81.47,41.50 ]
    },
    "properties": {
    "Zip":44124,
    "businesses":23,
    "total_sales":4436781.5,
    "average_sales":192903.54,
    "total_cashed":2180128.5,
    "average_cash":94788.2,
    "cashed_rate":0.49
    }
  },
  {
    "type": "Feature",
    "geometry": {
       "type": "Point",
       "coordinates":  [ -81.63,41.40 ]
    },
    "properties": {
    "Zip":44125,
    "businesses":28,
    "total_sales":6154178,
    "average_sales":219792.07,
    "total_cashed":3159770,
    "average_cash":112848.93,
    "cashed_rate":0.51
    }
  },
  {
    "type": "Feature",
    "geometry": {
       "type": "Point",
       "coordinates":  [ -81.85,41.44 ]
    },
    "properties": {
    "Zip":44126,
    "businesses":15,
    "total_sales":2478103,
    "average_sales":165206.87,
    "total_cashed":1301369,
    "average_cash":86757.93,
    "cashed_rate":0.53
    }
  },
  {
    "type": "Feature",
    "geometry": {
       "type": "Point",
       "coordinates":  [ -81.65,41.47 ]
    },
    "properties": {
    "Zip":44127,
    "businesses":12,
    "total_sales":1158761,
    "average_sales":96563.42,
    "total_cashed":514781,
    "average_cash":42898.42,
    "cashed_rate":0.44
    }
  },
  {
    "type": "Feature",
    "geometry": {
       "type": "Point",
       "coordinates":  [ -81.54,41.44 ]
    },
    "properties": {
    "Zip":44128,
    "businesses":35,
    "total_sales":10529904,
    "average_sales":300854.4,
    "total_cashed":4755340.5,
    "average_cash":135866.87,
    "cashed_rate":0.45
    }
  },
  {
    "type": "Feature",
    "geometry": {
       "type": "Point",
       "coordinates":  [ -81.74,41.39 ]
    },
    "properties": {
    "Zip":44129,
    "businesses":30,
    "total_sales":5755941.5,
    "average_sales":191864.72,
    "total_cashed":2968154,
    "average_cash":98938.47,
    "cashed_rate":0.52
    }
  },
  {
    "type": "Feature",
    "geometry": {
       "type": "Point",
       "coordinates":  [ -81.79,41.38 ]
    },
    "properties": {
    "Zip":44130,
    "businesses":64,
    "total_sales":13668184,
    "average_sales":213565.38,
    "total_cashed":7075145.5,
    "average_cash":110549.15,
    "cashed_rate":0.52
    }
  },
  {
    "type": "Feature",
    "geometry": {
       "type": "Point",
       "coordinates":  [ -81.64,41.39 ]
    },
    "properties": {
    "Zip":44131,
    "businesses":16,
    "total_sales":3768093.5,
    "average_sales":235505.84,
    "total_cashed":1836804.5,
    "average_cash":114800.28,
    "cashed_rate":0.49
    }
  },
  {
    "type": "Feature",
    "geometry": {
       "type": "Point",
       "coordinates":  [ -81.50,41.61 ]
    },
    "properties": {
    "Zip":44132,
    "businesses":10,
    "total_sales":2517001.5,
    "average_sales":251700.15,
    "total_cashed":1113647.5,
    "average_cash":111364.75,
    "cashed_rate":0.44
    }
  },
  {
    "type": "Feature",
    "geometry": {
       "type": "Point",
       "coordinates":  [ -81.74,41.31 ]
    },
    "properties": {
    "Zip":44133,
    "businesses":26,
    "total_sales":4172462,
    "average_sales":160479.31,
    "total_cashed":2227358.5,
    "average_cash":85667.63,
    "cashed_rate":0.53
    }
  },
  {
    "type": "Feature",
    "geometry": {
       "type": "Point",
       "coordinates":  [ -81.71,41.39 ]
    },
    "properties": {
    "Zip":44134,
    "businesses":56,
    "total_sales":10609156.5,
    "average_sales":189449.22,
    "total_cashed":5813117.5,
    "average_cash":103805.67,
    "cashed_rate":0.55
    }
  },
  {
    "type": "Feature",
    "geometry": {
       "type": "Point",
       "coordinates":  [ -81.82,41.42 ]
    },
    "properties": {
    "Zip":44135,
    "businesses":34,
    "total_sales":5604754,
    "average_sales":164845.71,
    "total_cashed":2782156,
    "average_cash":81828.12,
    "cashed_rate":0.5
    }
  },
  {
    "type": "Feature",
    "geometry": {
       "type": "Point",
       "coordinates":  [ -81.81,41.31 ]
    },
    "properties": {
    "Zip":44136,
    "businesses":22,
    "total_sales":3437865.5,
    "average_sales":156266.61,
    "total_cashed":1679833.5,
    "average_cash":76356.07,
    "cashed_rate":0.49
    }
  },
  {
    "type": "Feature",
    "geometry": {
       "type": "Point",
       "coordinates":  [ -81.56,41.40 ]
    },
    "properties": {
    "Zip":44137,
    "businesses":34,
    "total_sales":8071789.5,
    "average_sales":237405.57,
    "total_cashed":3811994.5,
    "average_cash":112117.49,
    "cashed_rate":0.47
    }
  },
  {
    "type": "Feature",
    "geometry": {
       "type": "Point",
       "coordinates":  [ -81.93,41.38 ]
    },
    "properties": {
    "Zip":44138,
    "businesses":14,
    "total_sales":1915661,
    "average_sales":136832.93,
    "total_cashed":1022122,
    "average_cash":73008.71,
    "cashed_rate":0.53
    }
  },
  {
    "type": "Feature",
    "geometry": {
       "type": "Point",
       "coordinates":  [ -81.44,41.39 ]
    },
    "properties": {
    "Zip":44139,
    "businesses":14,
    "total_sales":3101385,
    "average_sales":221527.5,
    "total_cashed":1477748,
    "average_cash":105553.43,
    "cashed_rate":0.48
    }
  },
  {
    "type": "Feature",
    "geometry": {
       "type": "Point",
       "coordinates":  [ -81.92,41.49 ]
    },
    "properties": {
    "Zip":44140,
    "businesses":5,
    "total_sales":419399,
    "average_sales":83879.8,
    "total_cashed":158616,
    "average_cash":31723.2,
    "cashed_rate":0.38
    }
  },
  {
    "type": "Feature",
    "geometry": {
       "type": "Point",
       "coordinates":  [ -81.62,41.31 ]
    },
    "properties": {
    "Zip":44141,
    "businesses":5,
    "total_sales":804167.5,
    "average_sales":160833.5,
    "total_cashed":347398,
    "average_cash":69479.6,
    "cashed_rate":0.43
    }
  },
  {
    "type": "Feature",
    "geometry": {
       "type": "Point",
       "coordinates":  [ -81.83,41.40 ]
    },
    "properties": {
    "Zip":44142,
    "businesses":23,
    "total_sales":6144061,
    "average_sales":267133.09,
    "total_cashed":2959303,
    "average_cash":128665.35,
    "cashed_rate":0.48
    }
  },
  {
    "type": "Feature",
    "geometry": {
       "type": "Point",
       "coordinates":  [ -81.48,41.56 ]
    },
    "properties": {
    "Zip":44143,
    "businesses":15,
    "total_sales":4897620,
    "average_sales":326508,
    "total_cashed":2219177.5,
    "average_cash":147945.17,
    "cashed_rate":0.45
    }
  },
  {
    "type": "Feature",
    "geometry": {
       "type": "Point",
       "coordinates":  [ -81.74,41.44 ]
    },
    "properties": {
    "Zip":44144,
    "businesses":24,
    "total_sales":5853976.5,
    "average_sales":243915.69,
    "total_cashed":3135360.5,
    "average_cash":130640.02,
    "cashed_rate":0.54
    }
  },
  {
    "type": "Feature",
    "geometry": {
       "type": "Point",
       "coordinates":  [ -81.93,41.44 ]
    },
    "properties": {
    "Zip":44145,
    "businesses":32,
    "total_sales":4250697.5,
    "average_sales":132834.3,
    "total_cashed":2044307,
    "average_cash":63884.59,
    "cashed_rate":0.48
    }
  },
  {
    "type": "Feature",
    "geometry": {
       "type": "Point",
       "coordinates":  [ -81.54,41.39 ]
    },
    "properties": {
    "Zip":44146,
    "businesses":36,
    "total_sales":6937810,
    "average_sales":192716.94,
    "total_cashed":2833348,
    "average_cash":78704.11,
    "cashed_rate":0.41
    }
  },
  {
    "type": "Feature",
    "geometry": {
       "type": "Point",
       "coordinates":  [ -81.67,41.31 ]
    },
    "properties": {
    "Zip":44147,
    "businesses":20,
    "total_sales":1993002.5,
    "average_sales":99650.13,
    "total_cashed":905894.5,
    "average_cash":45294.73,
    "cashed_rate":0.46
    }
  },
  {
    "type": "Feature",
    "geometry": {
       "type": "Point",
       "coordinates":  [ -81.85,41.31 ]
    },
    "properties": {
    "Zip":44149,
    "businesses":12,
    "total_sales":2092054,
    "average_sales":174337.83,
    "total_cashed":1057605,
    "average_cash":88133.75,
    "cashed_rate":0.51
    }
  },
  {
    "type": "Feature",
    "geometry": {
       "type": "Point",
       "coordinates":  [ -81.70,41.50 ]
    },
    "properties": {
    "Zip":44199,
    "businesses":1,
    "total_sales":748573.5,
    "average_sales":748573.5,
    "total_cashed":363650,
    "average_cash":363650,
    "cashed_rate":0.49
    }
  }
]
}